{
"type": "FeatureCollection",
"name": "farm_blocks",
"crs": { "type": "name", "properties": { "name": "urn:ogc:def:crs:OGC:1.3:CRS84" } },
"features": [
{ "type": "Feature", "properties": { "block_id": "A", "hectares": 1.85, "planted_pct": 25.9, "area_sq_m": 18500.0, "planted_area_sq_m": 4791.5 }, "geometry": { "type": "Polygon", "coordinates": [ [ [ 237.908043143688474, 211.396450689032889 ], [ 242.966595257639085, 219.090676301858309 ], [ 203.127597566581187, 236.138519668511719 ], [ 148.161469416046316, 268.500646253334423 ], [ 150.738198289112347, 226.832918086937127 ], [ 87.202730986435412, 200.852964169375241 ], [ 116.198322867268359, 181.660796785814796 ], [ 90.668281033032571, 148.443798110920085 ], [ 127.391061530106953, 143.825461761077037 ], [ 129.18923471061558, 88.414534625878119 ], [ 235.750851517496983, 103.281505990148901 ], [ 258.436782700356957, 161.425436930010051 ], [ 237.908043143688474, 211.396450689032889 ] ] ] } },
{ "type": "Feature", "properties": { "block_id": "B", "hectares": 1.2, "planted_pct": 16.8, "area_sq_m": 12000.0, "planted_area_sq_m": 2016.0000000000002 }, "geometry": { "type": "Polygon", "coordinates": [ [ [ 267.12351869098228, 288.666604034578029 ], [ 246.128139387397255, 305.571094959332868 ], [ 240.860459218419862, 301.736980026645142 ], [ 241.88521142979647, 315.517073280045508 ], [ 157.255318568058271, 316.515477213367205 ], [ 157.415928291899235, 230.000240724866387 ], [ 176.111253585671108, 198.90474266411519 ], [ 231.077965035410102, 200.186457004825172 ], [ 253.348713423019433, 202.115902025655942 ], [ 276.722471784831725, 259.586591850951891 ], [ 267.12351869098228, 288.666604034578029 ] ] ] } },
{ "type": "Feature", "properties": { "block_id": "C", "hectares": 0.95, "planted_pct": 13.3, "area_sq_m": 9500.0, "planted_area_sq_m": 1263.5 }, "geometry": { "type": "Polygon", "coordinates": [ [ [ 101.610118029953526, 342.140496512567495 ], [ 75.540676734108828, 326.027922278207654 ], [ 55.117136669185236, 331.101843574639474 ], [ 55.438197629632171, 355.78178807418908 ], [ 53.335046822494242, 369.33550295576066 ], [ 10.075422751411054, 347.051226783414279 ], [ -2.29440647069697, 332.013656619079427 ], [ 2.869779115370775, 321.510568745743001 ], [ 2.906111032668122, 291.452451075950194 ], [ 13.715869016162671, 254.528524371397225 ], [ 106.301312936951234, 242.052569801959294 ], [ 101.610118029953526, 342.140496512567495 ] ] ] } },
{ "type": "Feature", "properties": { "block_id": "D", "hectares": 1.45, "planted_pct": 20.3, "area_sq_m": 14500.0, "planted_area_sq_m": 2943.5 }, "geometry": { "type": "Polygon", "coordinates": [ [ [ 31.846932011634102, 81.650841611733142 ], [ 47.55118875604871, 114.055718414141154 ], [ 17.694675085981586, 129.617285645547383 ], [ -15.473920319179022, 162.731597419977135 ], [ -38.125845274733393, 139.741324506331523 ], [ -51.653283278961979, 162.243703610842886 ], [ -75.812830494742457, 108.670064205395747 ], [ -84.430665520123483, 110.74555552186537 ], [ -104.303099240878225, 21.807662477892485 ], [ -52.228674103591977, 2.270027999587597 ], [ 24.555879675710486, 58.067031704933356 ], [ 31.846932011634102, 81.650841611733142 ] ] ] } },
{ "type": "Feature", "properties": { "block_id": "E", "hectares": 0.75, "planted_pct": 10.5, "area_sq_m": 7500.0, "planted_area_sq_m": 787.5 }, "geometry": { "type": "Polygon", "coordinates": [ [ [ 125.048982826994887, -70.771611844691662 ], [ 148.596517527271828, -109.140631716197817 ], [ 134.376436284730886, -125.432268927808565 ], [ 137.856239144880078, -132.823669760115422 ], [ 161.315381147460528, -156.380163433522711 ], [ 191.88984210082657, -190.869179699862713 ], [ 248.509810100828133, -149.130888847460284 ], [ 279.096443949532045, -138.594380652169775 ], [ 125.048982826994887, -70.771611844691662 ] ] ] } },
{ "type": "Feature", "properties": { "block_id": "F", "hectares": 0.55, "planted_pct": 7.7, "area_sq_m": 5500.0, "planted_area_sq_m": 423.5 }, "geometry": { "type": "Polygon", "coordinates": [ [ [ 539.982029252781217, 93.61931752348049 ], [ 466.527412697709281, 123.281221897632292 ], [ 448.693516900451755, 121.424042561351143 ], [ 453.099844884345487, 101.081465294212236 ], [ 454.452505340961636, 54.118541694384092 ], [ 508.149256977450534, 35.564250701348804 ], [ 527.258174884967048, 47.494145078468222 ], [ 533.341192588920876, 58.546329348946955 ], [ 535.439335497016032, 76.802031863399833 ], [ 539.982029252781217, 93.61931752348049 ] ] ] } },
{ "type": "Feature", "properties": { "block_id": "G", "hectares": 0.4, "planted_pct": 5.6, "area_sq_m": 4000.0, "planted_area_sq_m": 223.99999999999997 }, "geometry": { "type": "Polygon", "coordinates": [ [ [ 429.852304766689144, 485.009386015688278 ], [ 442.401017977137371, 502.25541495330117 ], [ 417.839706945308194, 514.442386602387728 ], [ 365.017035120297976, 492.227653915065048 ], [ 372.31785024096763, 479.439192380631937 ], [ 370.278992132231679, 446.907441190220482 ], [ 379.230135162757108, 431.894303628812111 ], [ 399.920451704896436, 442.573842757816294 ], [ 424.708081471619494, 444.75036585599463 ], [ 434.995302512727335, 442.877200568281864 ], [ 427.967680330223175, 453.940721396973345 ], [ 429.852304766689144, 485.009386015688278 ] ] ] } }
]
}
