{
  "type": "FeatureCollection",
  "features": [
    {
      "type": "Feature",
      "properties": {
        "name": "Block A",
        "area_hectares": 1.85,
        "planted_percentage": 25.9
      },
      "geometry": {
        "type": "Polygon",
        "coordinates": [
          [
            [
              -120.00009247688129,
              45.00064385444629
            ],
            [
              -119.99888621814071,
              45.001346507853285
            ],
            [
              -119.99856984428108,
              45.00107261678919
            ],
            [
              -119.99847799615496,
              45.000983598530496
            ],
            [
              -119.99918297889663,
              44.999177496006915
            ],
            [
              -120.00025272184642,
              45.00034310021279
            ],
            [
              -120.00009247688129,
              45.00064385444629
            ]
          ]
        ]
      }
    },
    {
      "type": "Feature",
      "properties": {
        "name": "Block D",
        "area_hectares": 1.45,
        "planted_percentage": 20.3
      },
      "geometry": {
        "type": "Polygon",
        "coordinates": [
          [
            [
              -119.99918001763443,
              44.99912400810372
            ],
            [
              -119.99918297889663,
              44.999177496006915
            ],
            [
              -119.99847799615496,
              45.000983598530496
            ],
            [
              -119.99807890829165,
              45.00059680668012
            ],
            [
              -119.99796260120762,
              45.0
            ],
            [
              -119.9978630141524,
              44.999336123609496
            ],
            [
              -119.99844586444338,
              44.998834398332534
            ],
            [
              -119.99899231486168,
              44.998723889533736
            ],
            [
              -119.99918001763443,
              44.99912400810372
            ]
          ]
        ]
      }
    },
    {
      "type": "Feature",
      "properties": {
        "name": "Block B",
        "area_hectares": 1.2,
        "planted_percentage": 16.8
      },
      "geometry": {
        "type": "Polygon",
        "coordinates": [
          [
            [
              -120.00119410895317,
              45.000263040741345
            ],
            [
              -120.00025272184642,
              45.00034310021279
            ],
            [
              -119.99918297889663,
              44.999177496006915
            ],
            [
              -119.99918001763443,
              44.99912400810372
            ],
            [
              -120.00106589866678,
              44.999223408006735
            ],
            [
              -120.00119410895317,
              45.000263040741345
            ]
          ]
        ]
      }
    },
    {
      "type": "Feature",
      "properties": {
        "name": "Block C",
        "area_hectares": 0.95,
        "planted_percentage": 13.3
      },
      "geometry": {
        "type": "Polygon",
        "coordinates": [
          [
            [
              -120.00009247688129,
              45.00064385444629
            ],
            [
              -120.00025272184642,
              45.00034310021279
            ],
            [
              -120.00119410895317,
              45.000263040741345
            ],
            [
              -120.00174811165277,
              45.0007648686722
            ],
            [
              -120.00159037965905,
              45.00119278474429
            ],
            [
              -120.00076736497155,
              45.0013894371912
            ],
            [
              -120.00045026196864,
              45.00147815619595
            ],
            [
              -120.00009247688129,
              45.00064385444629
            ]
          ]
        ]
      }
    },
    {
      "type": "Feature",
      "properties": {
        "name": "Block E",
        "area_hectares": 0.75,
        "planted_percentage": 10.5
      },
      "geometry": {
        "type": "Polygon",
        "coordinates": [
          [
            [
              -120.00119410895317,
              45.000263040741345
            ],
            [
              -120.00106589866678,
              44.999223408006735
            ],
            [
              -120.00127873904906,
              44.998888726216386
            ],
            [
              -120.00140184171686,
              44.998948618712355
            ],
            [
              -120.00202496739998,
              44.99937092327967
            ],
            [
              -120.0019479048817,
              45.0
            ],
            [
              -120.00182146812425,
              45.00056585760037
            ],
            [
              -120.00174811165277,
              45.0007648686722
            ],
            [
              -120.00119410895317,
              45.000263040741345
            ]
          ]
        ]
      }
    },
    {
      "type": "Feature",
      "properties": {
        "name": "Block F",
        "area_hectares": 0.55,
        "planted_percentage": 7.7
      },
      "geometry": {
        "type": "Polygon",
        "coordinates": [
          [
            [
              -120.00106589866678,
              44.999223408006735
            ],
            [
              -119.99918001763443,
              44.99912400810372
            ],
            [
              -119.99899231486168,
              44.998723889533736
            ],
            [
              -119.9992647911358,
              44.998668786591644
            ],
            [
              -120.0,
              44.99851549302243
            ],
            [
              -120.00075458095203,
              44.99863371032376
            ],
            [
              -120.00127873904906,
              44.998888726216386
            ],
            [
              -120.00106589866678,
              44.999223408006735
            ]
          ]
        ]
      }
    },
    {
      "type": "Feature",
      "properties": {
        "name": "Block G",
        "area_hectares": 0.4,
        "planted_percentage": 5.6
      },
      "geometry": {
        "type": "Polygon",
        "coordinates": [
          [
            [
              -120.00009247688129,
              45.00064385444629
            ],
            [
              -120.00045026196864,
              45.00147815619595
            ],
            [
              -120.0,
              45.001604130385296
            ],
            [
              -119.99913662079143,
              45.001563286346105
            ],
            [
              -119.99888621814071,
              45.001346507853285
            ],
            [
              -120.00009247688129,
              45.00064385444629
            ]
          ]
        ]
      }
    }
  ]
}